*******************************************************************************
Ephemeris / WWW_USER Mon Mar 24 08:29:41 2025 Pasadena, USA      / Horizons    
*******************************************************************************
Target body name: (2018 WV1)                      {source: JPL#17}
Center body name: Earth (399)                     {source: DE441}
Center-site name: Mauna Kea
*******************************************************************************
Start time      : A.D. 2019-Jan-22 04:17:00.0000 UT      
Stop  time      : A.D. 2019-Jan-22 16:49:00.0000 UT      
Step-size       : 1 minutes
*******************************************************************************
Target pole/equ : undefined
Target radii    : undefined                                                    
Center geodetic : 204.5278, 19.8260847, 4.21024   {E-lon(deg),Lat(deg),Alt(km)}
Center cylindric: 204.5278, 6006.35451, 2151.0229 {E-lon(deg),Dxy(km),Dz(km)}
Center pole/equ : ITRF93                          {East-longitude positive}
Center radii    : 6378.137, 6378.137, 6356.752 km {Equator_a, b, pole_c}       
Target primary  : Sun
Vis. interferer : MOON (R_eq= 1737.400) km        {source: DE441}
Rel. light bend : Sun                             {source: DE441}
Rel. lght bnd GM: 1.3271E+11 km^3/s^2                                          
Small-body perts: Yes                             {source: SB441-N16}
Atmos refraction: NO (AIRLESS)
RA format       : HMS
Time format     : CAL 
Calendar mode   : Mixed Julian/Gregorian
RTS-only print  : NO       
EOP file        : eop.250321.p250617                                           
EOP coverage    : DATA-BASED 1962-JAN-20 TO 2025-MAR-21. PREDICTS-> 2025-JUN-16
Units conversion: 1 au= 149597870.700 km, c= 299792.458 km/s, 1 day= 86400.0 s 
Table cut-offs 1: Elevation (-90.0deg=NO ),Airmass (>38.000=NO), Daylight (YES)
Table cut-offs 2: Solar elongation (  0.0,180.0=NO ),Local Hour Angle( 0.0=NO )
Table cut-offs 3: RA/DEC angular rate (     0.0=NO )                           
*******************************************************************************
Initial IAU76/J2000 heliocentric ecliptic osculating elements (au, days, deg.):
  EPOCH=  2458458.5 ! 2018-Dec-06.00 (TDB)         Residual RMS= .12928        
   EC= .06869100257422787  QR= .9715505345748198   TP= 2458416.866413563       
   OM= 248.5061090469913   W=  141.3742304527303   IN= 1.905403987972275       
  Equivalent ICRF heliocentric cartesian coordinates (au, au/d):
   X= 2.787163119783287E-01  Y= 8.719775267121872E-01  Z= 3.748421051204766E-01
  VX=-1.676682657337402E-02 VY= 5.516972965834891E-03 VZ= 1.749720915605096E-03
Asteroid physical parameters (km, seconds, rotational period in hours):        
   GM= n.a.                RAD= n.a.               ROTPER= n.a.                
   H= 30.3                 G= .150                 B-V= n.a.                   
                           ALBEDO= n.a.            STYP= n.a.                  
*******************************************************************************
 Date__(UT)__HR:MN     R.A._________(ICRF)_________DEC
******************************************************
$$SOE
 2019-Jan-22 06:20  m  06 05 16.934923 +00 14 25.61921
 2019-Jan-22 06:21  m  06 05 16.934226 +00 14 26.30914
 2019-Jan-22 06:22  m  06 05 16.933443 +00 14 26.99906
 2019-Jan-22 06:23  m  06 05 16.932575 +00 14 27.68896
 2019-Jan-22 06:24  m  06 05 16.931623 +00 14 28.37886
 2019-Jan-22 06:25  m  06 05 16.930586 +00 14 29.06874
 2019-Jan-22 06:26  m  06 05 16.929466 +00 14 29.75862
 2019-Jan-22 06:27  m  06 05 16.928263 +00 14 30.44848
 2019-Jan-22 06:28  m  06 05 16.926978 +00 14 31.13833
 2019-Jan-22 06:29  m  06 05 16.925612 +00 14 31.82816
 2019-Jan-22 06:30  m  06 05 16.924165 +00 14 32.51799
 2019-Jan-22 06:31  m  06 05 16.922638 +00 14 33.20781
 2019-Jan-22 06:32  m  06 05 16.921032 +00 14 33.89761
 2019-Jan-22 06:33  m  06 05 16.919347 +00 14 34.58740
 2019-Jan-22 06:34  m  06 05 16.917584 +00 14 35.27718
 2019-Jan-22 06:35  m  06 05 16.915744 +00 14 35.96695
 2019-Jan-22 06:36  m  06 05 16.913828 +00 14 36.65671
 2019-Jan-22 06:37  m  06 05 16.911835 +00 14 37.34645
 2019-Jan-22 06:38  m  06 05 16.909767 +00 14 38.03619
 2019-Jan-22 06:39  m  06 05 16.907625 +00 14 38.72591
 2019-Jan-22 06:40  m  06 05 16.905409 +00 14 39.41562
 2019-Jan-22 06:41  m  06 05 16.903119 +00 14 40.10532
 2019-Jan-22 06:42  m  06 05 16.900757 +00 14 40.79501
 2019-Jan-22 06:43  m  06 05 16.898324 +00 14 41.48468
 2019-Jan-22 06:44  m  06 05 16.895819 +00 14 42.17434
 2019-Jan-22 06:45  m  06 05 16.893244 +00 14 42.86399
 2019-Jan-22 06:46  m  06 05 16.890599 +00 14 43.55363
 2019-Jan-22 06:47  m  06 05 16.887885 +00 14 44.24326
 2019-Jan-22 06:48  m  06 05 16.885102 +00 14 44.93288
 2019-Jan-22 06:49  m  06 05 16.882252 +00 14 45.62248
 2019-Jan-22 06:50  m  06 05 16.879335 +00 14 46.31207
 2019-Jan-22 06:51  m  06 05 16.876352 +00 14 47.00165
 2019-Jan-22 06:52  m  06 05 16.873304 +00 14 47.69122
 2019-Jan-22 06:53  m  06 05 16.870190 +00 14 48.38077
 2019-Jan-22 06:54  m  06 05 16.867013 +00 14 49.07031
 2019-Jan-22 06:55  m  06 05 16.863772 +00 14 49.75985
 2019-Jan-22 06:56  m  06 05 16.860468 +00 14 50.44936
 2019-Jan-22 06:57  m  06 05 16.857102 +00 14 51.13887
 2019-Jan-22 06:58  m  06 05 16.853675 +00 14 51.82836
 2019-Jan-22 06:59  m  06 05 16.850188 +00 14 52.51785
 2019-Jan-22 07:00  m  06 05 16.846640 +00 14 53.20732
 2019-Jan-22 07:01  m  06 05 16.843034 +00 14 53.89677
 2019-Jan-22 07:02  m  06 05 16.839369 +00 14 54.58622
 2019-Jan-22 07:03  m  06 05 16.835646 +00 14 55.27565
 2019-Jan-22 07:04  m  06 05 16.831866 +00 14 55.96507
 2019-Jan-22 07:05  m  06 05 16.828031 +00 14 56.65448
 2019-Jan-22 07:06  m  06 05 16.824139 +00 14 57.34388
 2019-Jan-22 07:07  m  06 05 16.820193 +00 14 58.03326
 2019-Jan-22 07:08  m  06 05 16.816192 +00 14 58.72263
 2019-Jan-22 07:09  m  06 05 16.812138 +00 14 59.41199
 2019-Jan-22 07:10  m  06 05 16.808032 +00 15 00.10134
 2019-Jan-22 07:11  m  06 05 16.803873 +00 15 00.79067
 2019-Jan-22 07:12  m  06 05 16.799664 +00 15 01.47999
 2019-Jan-22 07:13  m  06 05 16.795403 +00 15 02.16930
 2019-Jan-22 07:14  m  06 05 16.791093 +00 15 02.85860
 2019-Jan-22 07:15  m  06 05 16.786734 +00 15 03.54788
 2019-Jan-22 07:16  m  06 05 16.782327 +00 15 04.23715
 2019-Jan-22 07:17  m  06 05 16.777872 +00 15 04.92641
 2019-Jan-22 07:18  m  06 05 16.773370 +00 15 05.61565
 2019-Jan-22 07:19  m  06 05 16.768822 +00 15 06.30489
 2019-Jan-22 07:20  m  06 05 16.764229 +00 15 06.99411
 2019-Jan-22 07:21  m  06 05 16.759591 +00 15 07.68332
 2019-Jan-22 07:22  m  06 05 16.754909 +00 15 08.37251
 2019-Jan-22 07:23  m  06 05 16.750184 +00 15 09.06169
 2019-Jan-22 07:24  m  06 05 16.745417 +00 15 09.75086
 2019-Jan-22 07:25  m  06 05 16.740608 +00 15 10.44002
 2019-Jan-22 07:26  m  06 05 16.735757 +00 15 11.12917
 2019-Jan-22 07:27  m  06 05 16.730867 +00 15 11.81830
 2019-Jan-22 07:28  m  06 05 16.725937 +00 15 12.50742
 2019-Jan-22 07:29  m  06 05 16.720969 +00 15 13.19652
 2019-Jan-22 07:30  m  06 05 16.715962 +00 15 13.88561
 2019-Jan-22 07:31  m  06 05 16.710918 +00 15 14.57470
 2019-Jan-22 07:32  m  06 05 16.705837 +00 15 15.26376
 2019-Jan-22 07:33  m  06 05 16.700721 +00 15 15.95282
 2019-Jan-22 07:34  m  06 05 16.695570 +00 15 16.64186
 2019-Jan-22 07:35  m  06 05 16.690384 +00 15 17.33089
 2019-Jan-22 07:36  m  06 05 16.685165 +00 15 18.01990
 2019-Jan-22 07:37  m  06 05 16.679913 +00 15 18.70891
 2019-Jan-22 07:38  m  06 05 16.674629 +00 15 19.39790
 2019-Jan-22 07:39  m  06 05 16.669314 +00 15 20.08687
 2019-Jan-22 07:40  m  06 05 16.663968 +00 15 20.77584
 2019-Jan-22 07:41  m  06 05 16.658592 +00 15 21.46479
 2019-Jan-22 07:42  m  06 05 16.653187 +00 15 22.15373
 2019-Jan-22 07:43  m  06 05 16.647754 +00 15 22.84265
 2019-Jan-22 07:44  m  06 05 16.642294 +00 15 23.53156
 2019-Jan-22 07:45  m  06 05 16.636806 +00 15 24.22046
 2019-Jan-22 07:46  m  06 05 16.631292 +00 15 24.90935
 2019-Jan-22 07:47  m  06 05 16.625753 +00 15 25.59822
 2019-Jan-22 07:48  m  06 05 16.620190 +00 15 26.28708
 2019-Jan-22 07:49  m  06 05 16.614603 +00 15 26.97593
 2019-Jan-22 07:50  m  06 05 16.608992 +00 15 27.66476
 2019-Jan-22 07:51  m  06 05 16.603360 +00 15 28.35358
 2019-Jan-22 07:52  m  06 05 16.597705 +00 15 29.04239
 2019-Jan-22 07:53  m  06 05 16.592030 +00 15 29.73119
 2019-Jan-22 07:54  m  06 05 16.586335 +00 15 30.41997
 2019-Jan-22 07:55  m  06 05 16.580621 +00 15 31.10874
 2019-Jan-22 07:56  m  06 05 16.574888 +00 15 31.79749
 2019-Jan-22 07:57  m  06 05 16.569137 +00 15 32.48623
 2019-Jan-22 07:58  m  06 05 16.563369 +00 15 33.17496
 2019-Jan-22 07:59  m  06 05 16.557585 +00 15 33.86368
 2019-Jan-22 08:00  m  06 05 16.551786 +00 15 34.55238
 2019-Jan-22 08:01  m  06 05 16.545972 +00 15 35.24107
 2019-Jan-22 08:02  m  06 05 16.540143 +00 15 35.92974
 2019-Jan-22 08:03  m  06 05 16.534302 +00 15 36.61840
 2019-Jan-22 08:04  m  06 05 16.528448 +00 15 37.30705
 2019-Jan-22 08:05  m  06 05 16.522582 +00 15 37.99569
 2019-Jan-22 08:06  m  06 05 16.516705 +00 15 38.68431
 2019-Jan-22 08:07  m  06 05 16.510818 +00 15 39.37292
 2019-Jan-22 08:08  m  06 05 16.504922 +00 15 40.06152
 2019-Jan-22 08:09  m  06 05 16.499017 +00 15 40.75010
 2019-Jan-22 08:10  m  06 05 16.493104 +00 15 41.43867
 2019-Jan-22 08:11  m  06 05 16.487183 +00 15 42.12723
 2019-Jan-22 08:12  m  06 05 16.481257 +00 15 42.81577
 2019-Jan-22 08:13  m  06 05 16.475324 +00 15 43.50430
 2019-Jan-22 08:14  m  06 05 16.469387 +00 15 44.19282
 2019-Jan-22 08:15  m  06 05 16.463446 +00 15 44.88132
 2019-Jan-22 08:16  m  06 05 16.457501 +00 15 45.56981
 2019-Jan-22 08:17  m  06 05 16.451554 +00 15 46.25828
 2019-Jan-22 08:18  m  06 05 16.445604 +00 15 46.94675
 2019-Jan-22 08:19  m  06 05 16.439654 +00 15 47.63520
 2019-Jan-22 08:20  m  06 05 16.433703 +00 15 48.32363
 2019-Jan-22 08:21  m  06 05 16.427753 +00 15 49.01206
 2019-Jan-22 08:22  m  06 05 16.421804 +00 15 49.70046
